     2.100          NAVIGATION                              RINEX VERSION / TYPE
fic2rin                                 01/11/2013 00:20:17 PGM / RUN BY / DATE
                                                            END OF HEADER
29 13  1 10  9 59 44.0  .396409071982D-03  .386535248253D-11  .000000000000D+00
     .100000000000D+02 -.513750000000D+02  .426374903083D-08 -.228713011889D+00
    -.257790088654D-05  .183638033923D-02  .125821679831D-04  .515372317123D+04
     .381584000000D+06 -.558793544769D-07  .403409578942D-01 -.428408384323D-07
     .965497161106D+00  .141500000000D+03 -.112314025219D+01 -.775853745994D-08
     .480019994760D-09  .100000000000D+01  .172200000000D+04  .000000000000D+00
     .240000000000D+01  .000000000000D+00 -.931322574615D-08  .100000000000D+02
     .377196000000D+06  .400000000000D+01
30 13  1 10  9 59 44.0 -.256835483015D-03  .119371179608D-10  .000000000000D+00
     .102000000000D+03 -.145468750000D+03  .462269255370D-08  .309714257825D+01
    -.764057040215D-05  .108556305058D-01  .285916030407D-05  .515361315727D+04
     .381584000000D+06  .195577740669D-06 -.115443661080D+01  .335276126862D-07
     .962322955105D+00  .322781250000D+03  .161251064000D+01 -.826570144250D-08
    -.313941648358D-09  .100000000000D+01  .172200000000D+04  .000000000000D+00
     .240000000000D+01  .000000000000D+00 -.465661287308D-08  .102000000000D+03
     .380856000000D+06  .400000000000D+01
16 13  1 10  9 59 44.0 -.251659657806D-03 -.341060513165D-12  .000000000000D+00
     .100000000000D+01 -.162500000000D+03  .414445834761D-08 -.214076095478D+01
    -.849924981594D-05  .679042376578D-02  .510923564434D-05  .515356657982D+04
     .381584000000D+06 -.335276126862D-07 -.100641001757D+01 -.109896063805D-06
     .983211072905D+00  .294875000000D+03  .281876518431D-01 -.807497921244D-08
    -.269654089318D-09  .100000000000D+01  .172200000000D+04  .000000000000D+00
     .240000000000D+01  .000000000000D+00 -.977888703346D-08  .100000000000D+01
     .380976000000D+06  .400000000000D+01
16 13  1 10 11 59 44.0 -.251661986113D-03 -.341060513165D-12  .000000000000D+00
     .130000000000D+02 -.151625000000D+03  .404695428618D-08 -.109047853019D+01
    -.802427530289D-05  .678969116416D-02  .480934977531D-05  .515356714249D+04
     .388784000000D+06  .279396772385D-07 -.100646842896D+01 -.726431608200D-07
     .983209315940D+00  .293093750000D+03  .281475488698D-01 -.809212278368D-08
    -.233224000430D-09  .100000000000D+01  .172200000000D+04  .000000000000D+00
     .240000000000D+01  .000000000000D+00 -.977888703346D-08  .130000000000D+02
     .381606000000D+06  .400000000000D+01
29 13  1 10 11 59 44.0  .396436545998D-03  .386535248253D-11  .000000000000D+00
     .110000000000D+02 -.625937500000D+02  .423910514717D-08  .820982705019D+00
    -.323168933392D-05  .183770654257D-02  .123884528875D-04  .515372603226D+04
     .388784000000D+06 -.130385160446D-07  .402851051449D-01 -.726431608200D-07
     .965500536058D+00  .146687500000D+03 -.112268753317D+01 -.775603735580D-08
     .465019369923D-09  .100000000000D+01  .172200000000D+04  .000000000000D+00
     .240000000000D+01  .000000000000D+00 -.931322574615D-08  .110000000000D+02
     .381606000000D+06  .400000000000D+01
30 13  1 10 11 59 44.0 -.256749335676D-03  .119371179608D-10  .000000000000D+00
     .103000000000D+03 -.129968750000D+03  .455483258420D-08 -.213594693904D+01
    -.653415918350D-05  .108569225995D-01  .268220901489D-05  .515360986900D+04
     .388784000000D+06  .912696123123D-07 -.115449642660D+01  .119209289551D-06
     .962321231788D+00  .321562500000D+03  .161263372992D+01 -.822998566908D-08
    -.224652214809D-09  .100000000000D+01  .172200000000D+04  .000000000000D+00
     .340000000000D+01  .000000000000D+00 -.465661287308D-08  .103000000000D+03
     .381606000000D+06  .400000000000D+01
 1 13  1 10 12  0  0.0  .292542390525D-03  .227373675443D-11  .000000000000D+00
     .270000000000D+02  .214687500000D+02  .508056876894D-08  .184029927930D+01
     .115856528282D-05  .153533148114D-02  .603869557381D-05  .515369602966D+04
     .388800000000D+06 -.279396772385D-07  .103954648574D+01  .521540641785D-07
     .959877475413D+00  .261781250000D+03  .494280183725D+00 -.816391148825D-08
     .438232539859D-09  .100000000000D+01  .172200000000D+04  .000000000000D+00
     .240000000000D+01  .000000000000D+00  .838190317154D-08  .270000000000D+02
     .381606000000D+06  .400000000000D+01
 2 13  1 10 12  0  0.0  .414351001382D-03  .136424205266D-11  .000000000000D+00
     .850000000000D+02  .284062500000D+02  .536772358723D-08  .282920677966D+01
     .134669244289D-05  .118595092790D-01  .643357634544D-05  .515358139229D+04
     .388800000000D+06 -.143423676491D-06  .102087041418D+01 -.163912773132D-06
     .938413474059D+00  .243312500000D+03 -.269417930343D+01 -.818462663684D-08
     .478591363823D-09  .100000000000D+01  .172200000000D+04  .000000000000D+00
     .240000000000D+01  .000000000000D+00 -.176951289177D-07  .850000000000D+02
     .381606000000D+06  .400000000000D+01
 3 13  1 10 12  0  0.0  .153238885105D-03  .488853402203D-11  .000000000000D+00
     .119000000000D+03 -.969062500000D+02  .469412410054D-08  .298875734037D+01
    -.513531267643D-05  .159141346812D-01  .130906701088D-04  .515367856216D+04
     .388800000000D+06  .111758708954D-06 -.146279692039D+00 -.176951289177D-06
     .933660349353D+00  .108156250000D+03  .126393637429D+01 -.774210820417D-08
     .332156692802D-09  .100000000000D+01  .172200000000D+04  .000000000000D+00
     .340000000000D+01  .000000000000D+00 -.465661287308D-08  .119000000000D+03
     .381606000000D+06  .400000000000D+01
 4 13  1 10 12  0  0.0  .100817531347D-03  .111413100967D-10  .000000000000D+00
     .600000000000D+01  .238437500000D+02  .560844790008D-08 -.188385005209D+00
     .141374766827D-05  .104020064464D-01  .616721808910D-05  .515371406937D+04
     .388800000000D+06 -.298023223877D-07  .103747283155D+01  .102445483208D-06
     .937439575847D+00  .247218750000D+03  .953252465100D+00 -.863107380458D-08
     .417160233541D-09  .100000000000D+01  .172200000000D+04  .000000000000D+00
     .240000000000D+01  .000000000000D+00 -.651925802231D-08  .600000000000D+01
     .381606000000D+06  .400000000000D+01
 5 13  1 10 12  0  0.0 -.377783551812D-03 -.204636307899D-11  .000000000000D+00
     .240000000000D+02 -.342812500000D+02  .500878006437D-08 -.143221283611D+01
    -.178068876266D-05  .318795745261D-02  .781752169132D-05  .515381199837D+04
     .388800000000D+06 -.372529029846D-08  .208579682723D+01 -.931322574615D-07
     .949118167907D+00  .223375000000D+03  .315757054537D+00 -.815962559544D-08
    -.710386733316D-09  .100000000000D+01  .172200000000D+04  .000000000000D+00
     .240000000000D+01  .000000000000D+00 -.102445483208D-07  .240000000000D+02
     .381606000000D+06  .400000000000D+01
 6 13  1 10 12  0  0.0  .393546652049D-03 -.136424205266D-10  .000000000000D+00
     .100000000000D+03 -.733125000000D+02  .466555148180D-08 -.139591647805D+01
    -.401400029659D-05  .757988239639D-02  .132527202368D-04  .515369431877D+04
     .388800000000D+06 -.126659870148D-06 -.679078189875D-01 -.949949026108D-07
     .940385961616D+00  .113343750000D+03 -.398244334121D+00 -.800604776974D-08
     .518593030053D-09  .100000000000D+01  .172200000000D+04  .000000000000D+00
     .240000000000D+01  .000000000000D+00 -.512227416039D-08  .100000000000D+03
     .381606000000D+06  .400000000000D+01
 7 13  1 10 12  0  0.0  .167274847627D-03  .443378667114D-11  .000000000000D+00
     .590000000000D+02  .988125000000D+02  .444554231754D-08  .143356609092D+01
     .513345003128D-05  .604134763125D-02  .778585672379D-06  .515371107101D+04
     .388800000000D+06 -.745058059692D-07 -.208315350249D+01  .428408384323D-07
     .975669961347D+00  .372062500000D+03 -.292269714742D+01 -.843963725905D-08
     .239652839646D-09  .100000000000D+01  .172200000000D+04  .000000000000D+00
     .240000000000D+01  .000000000000D+00 -.111758708954D-07  .590000000000D+02
     .381606000000D+06  .400000000000D+01
 8 13  1 10 12  0  0.0  .391853973269D-05  .227373675443D-12  .000000000000D+00
     .350000000000D+02  .813750000000D+02  .393837833498D-08  .846050441214D+00
     .426732003689D-05  .126956219319D-01  .812113285065D-06  .515361253166D+04
     .388800000000D+06 -.391155481339D-07 -.199486701230D+01  .242143869400D-06
     .998127425979D+00  .381875000000D+03 -.288594416727D+01 -.827105880851D-08
     .187864968187D-09  .100000000000D+01  .172200000000D+04  .000000000000D+00
     .240000000000D+01  .000000000000D+00 -.419095158577D-08  .350000000000D+02
     .381606000000D+06  .400000000000D+01
 9 13  1 10 12  0  0.0  .212679617107D-03  .261479726760D-11  .000000000000D+00
     .130000000000D+02  .104031250000D+03  .425517724521D-08  .125888223078D+01
     .507198274136D-05  .170721033355D-01  .200979411602D-05  .515282990837D+04
     .388800000000D+06 -.160187482834D-06 -.210730177127D+01 -.333413481712D-06
     .984353187679D+00  .350968750000D+03  .163548471952D+01 -.838927801853D-08
     .342157109360D-09  .100000000000D+01  .172200000000D+04  .000000000000D+00
     .240000000000D+01  .000000000000D+00 -.558793544769D-08  .130000000000D+02
     .381606000000D+06  .400000000000D+01
10 13  1 10 12  0  0.0 -.656461343169D-04 -.147792889038D-11  .000000000000D+00
     .710000000000D+02 -.254375000000D+02  .516200073234D-08 -.106945933639D+01
    -.128522515297D-05  .122525803745D-01  .796094536781D-05  .515374538422D+04
     .388800000000D+06  .266358256340D-06  .210603336863D+01  .126659870148D-06
     .943981983953D+00  .215562500000D+03  .789014237953D+00 -.826784438891D-08
    -.781461122421D-09  .100000000000D+01  .172200000000D+04  .000000000000D+00
     .240000000000D+01  .000000000000D+00 -.279396772385D-08  .710000000000D+02
     .381606000000D+06  .400000000000D+01
